[
  {"nom": "Agonès", "code_postal": "34190", "lat": 43.898, "lng": 3.724},
  {"nom": "Aimargues", "code_postal": "30470", "lat": 43.666, "lng": 4.201},
  {"nom": "Aniane", "code_postal": "34150", "lat": 43.686, "lng": 3.591},
  {"nom": "Arboras", "code_postal": "34150", "lat": 43.720, "lng": 3.473},
  {"nom": "Argelliers", "code_postal": "34380", "lat": 43.732, "lng": 3.676},
  {"nom": "Aspères", "code_postal": "30250", "lat": 43.806, "lng": 4.032},
  {"nom": "Aspiran", "code_postal": "34800", "lat": 43.565, "lng": 3.449},
  {"nom": "Assas", "code_postal": "34820", "lat": 43.714, "lng": 3.903},
  {"nom": "Aubais", "code_postal": "30250", "lat": 43.749, "lng": 4.142},
  {"nom": "Aumelas", "code_postal": "34230", "lat": 43.576, "lng": 3.605},
  {"nom": "Baillargues", "code_postal": "34670", "lat": 43.656, "lng": 4.010},
  {"nom": "Balaruc-le-Vieux", "code_postal": "34540", "lat": 43.465, "lng": 3.697},
  {"nom": "Balaruc-les-Bains", "code_postal": "34540", "lat": 43.447, "lng": 3.692},
  {"nom": "Beaulieu", "code_postal": "34160", "lat": 43.729, "lng": 4.025},
  {"nom": "Bélarga", "code_postal": "34230", "lat": 43.554, "lng": 3.500},
  {"nom": "Boisseron", "code_postal": "34160", "lat": 43.753, "lng": 4.074},
  {"nom": "La Boissière", "code_postal": "34150", "lat": 43.659, "lng": 3.647},
  {"nom": "Le Bosc", "code_postal": "34700", "lat": 43.698, "lng": 3.389},
  {"nom": "Bouzigues", "code_postal": "34140", "lat": 43.444, "lng": 3.656},
  {"nom": "Brignac", "code_postal": "34800", "lat": 43.622, "lng": 3.470},
  {"nom": "Brissac", "code_postal": "34190", "lat": 43.868, "lng": 3.711},
  {"nom": "Brouzet-lès-Quissac", "code_postal": "30260", "lat": 43.862, "lng": 3.986},
  {"nom": "Buzignargues", "code_postal": "34160", "lat": 43.772, "lng": 3.995},
  {"nom": "Campagnan", "code_postal": "34230", "lat": 43.540, "lng": 3.493},
  {"nom": "Campagne", "code_postal": "34160", "lat": 43.786, "lng": 4.033},
  {"nom": "Candillargues", "code_postal": "34130", "lat": 43.618, "lng": 4.064},
  {"nom": "Canet", "code_postal": "34800", "lat": 43.599, "lng": 3.482},
  {"nom": "Carnas", "code_postal": "30260", "lat": 43.833, "lng": 3.988},
  {"nom": "Castelnau-le-Lez", "code_postal": "34170", "lat": 43.637, "lng": 3.911},
  {"nom": "Castries", "code_postal": "34160", "lat": 43.690, "lng": 3.985},
  {"nom": "Causse-de-la-Selle", "code_postal": "34380", "lat": 43.792, "lng": 3.632},
  {"nom": "Cazevieille", "code_postal": "34270", "lat": 43.766, "lng": 3.786},
  {"nom": "Ceyras", "code_postal": "34800", "lat": 43.651, "lng": 3.462},
  {"nom": "Clapiers", "code_postal": "34830", "lat": 43.666, "lng": 3.884},
  {"nom": "Claret", "code_postal": "34270", "lat": 43.855, "lng": 3.876},
  {"nom": "Clermont-l'Hérault", "code_postal": "34800", "lat": 43.632, "lng": 3.401},
  {"nom": "Combaillaux", "code_postal": "34980", "lat": 43.674, "lng": 3.784},
  {"nom": "Corconne", "code_postal": "30260", "lat": 43.873, "lng": 3.940},
  {"nom": "Cournonsec", "code_postal": "34660", "lat": 43.539, "lng": 3.702},
  {"nom": "Cournonterral", "code_postal": "34660", "lat": 43.571, "lng": 3.707},
  {"nom": "Le Crès", "code_postal": "34920", "lat": 43.651, "lng": 3.934},
  {"nom": "Entre-Vignes", "code_postal": "34400", "lat": 43.719, "lng": 4.081},
  {"nom": "Fabrègues", "code_postal": "34690", "lat": 43.531, "lng": 3.773},
  {"nom": "Ferrières-les-Verreries", "code_postal": "34190", "lat": 43.865, "lng": 3.802},
  {"nom": "Fontanès", "code_postal": "34270", "lat": 43.793, "lng": 3.920},
  {"nom": "Frontignan", "code_postal": "34110", "lat": 43.450, "lng": 3.749},
  {"nom": "Gailhan", "code_postal": "30260", "lat": 43.846, "lng": 4.031},
  {"nom": "Galargues", "code_postal": "34160", "lat": 43.784, "lng": 4.014},
  {"nom": "Gallargues-le-Montueux", "code_postal": "30660", "lat": 43.713, "lng": 4.170},
  {"nom": "Ganges", "code_postal": "34190", "lat": 43.944, "lng": 3.703},
  {"nom": "Garrigues", "code_postal": "34160", "lat": 43.799, "lng": 4.012},
  {"nom": "Gigean", "code_postal": "34770", "lat": 43.495, "lng": 3.724},
  {"nom": "Gignac", "code_postal": "34150", "lat": 43.641, "lng": 3.566},
  {"nom": "Grabels", "code_postal": "34790", "lat": 43.650, "lng": 3.789},
  {"nom": "La Grande-Motte", "code_postal": "34280", "lat": 43.571, "lng": 4.072},
  {"nom": "Guzargues", "code_postal": "34820", "lat": 43.727, "lng": 3.923},
  {"nom": "Jacou", "code_postal": "34830", "lat": 43.664, "lng": 3.913},
  {"nom": "Jonquières", "code_postal": "34725", "lat": 43.674, "lng": 3.478},
  {"nom": "Juvignac", "code_postal": "34990", "lat": 43.617, "lng": 3.790},
  {"nom": "Lacoste", "code_postal": "34800", "lat": 43.655, "lng": 3.421},
  {"nom": "Lagamas", "code_postal": "34150", "lat": 43.675, "lng": 3.531},
  {"nom": "Lansargues", "code_postal": "34130", "lat": 43.631, "lng": 4.078},
  {"nom": "Laroque", "code_postal": "34190", "lat": 43.925, "lng": 3.733},
  {"nom": "Lattes", "code_postal": "34970", "lat": 43.566, "lng": 3.899},
  {"nom": "Lauret", "code_postal": "34270", "lat": 43.830, "lng": 3.880},
  {"nom": "Lavérune", "code_postal": "34880", "lat": 43.584, "lng": 3.800},
  {"nom": "Lecques", "code_postal": "30250", "lat": 43.842, "lng": 4.056},
  {"nom": "Liouc", "code_postal": "30260", "lat": 43.889, "lng": 3.983},
  {"nom": "Loupian", "code_postal": "34140", "lat": 43.450, "lng": 3.627},
  {"nom": "Lunel", "code_postal": "34400", "lat": 43.678, "lng": 4.132},
  {"nom": "Lunel-Viel", "code_postal": "34400", "lat": 43.680, "lng": 4.082},
  {"nom": "Marsillargues", "code_postal": "34590", "lat": 43.637, "lng": 4.134},
  {"nom": "Mas-de-Londres", "code_postal": "34380", "lat": 43.785, "lng": 3.777},
  {"nom": "Les Matelles", "code_postal": "34270", "lat": 43.728, "lng": 3.808},
  {"nom": "Mauguio", "code_postal": "34130", "lat": 43.591, "lng": 4.012},
  {"nom": "Mèze", "code_postal": "34140", "lat": 43.432, "lng": 3.584},
  {"nom": "Mireval", "code_postal": "34110", "lat": 43.515, "lng": 3.802},
  {"nom": "Montarnaud", "code_postal": "34570", "lat": 43.648, "lng": 3.705},
  {"nom": "Montaud", "code_postal": "34160", "lat": 43.742, "lng": 3.950},
  {"nom": "Montbazin", "code_postal": "34560", "lat": 43.532, "lng": 3.669},
  {"nom": "Montferrier-sur-Lez", "code_postal": "34980", "lat": 43.667, "lng": 3.862},
  {"nom": "Montoulieu", "code_postal": "34190", "lat": 43.915, "lng": 3.801},
  {"nom": "Montpellier", "code_postal": "34090", "lat": 43.610, "lng": 3.874},
  {"nom": "Montpeyroux", "code_postal": "34150", "lat": 43.710, "lng": 3.501},
  {"nom": "Mudaison", "code_postal": "34130", "lat": 43.640, "lng": 4.037},
  {"nom": "Murles", "code_postal": "34980", "lat": 43.701, "lng": 3.755},
  {"nom": "Murviel-lès-Montpellier", "code_postal": "34570", "lat": 43.611, "lng": 3.740},
  {"nom": "Nébian", "code_postal": "34800", "lat": 43.599, "lng": 3.435},
  {"nom": "Notre-Dame-de-Londres", "code_postal": "34380", "lat": 43.837, "lng": 3.754},
  {"nom": "Palavas-les-Flots", "code_postal": "34250", "lat": 43.532, "lng": 3.934},
  {"nom": "Pégairolles-de-Buèges", "code_postal": "34380", "lat": 43.806, "lng": 3.574},
  {"nom": "Pérols", "code_postal": "34470", "lat": 43.560, "lng": 3.951},
  {"nom": "Pignan", "code_postal": "34570", "lat": 43.581, "lng": 3.742},
  {"nom": "Plaissan", "code_postal": "34230", "lat": 43.559, "lng": 3.530},
  {"nom": "Pompignan", "code_postal": "30170", "lat": 43.896, "lng": 3.865},
  {"nom": "Popian", "code_postal": "34230", "lat": 43.623, "lng": 3.534},
  {"nom": "Le Pouget", "code_postal": "34230", "lat": 43.591, "lng": 3.518},
  {"nom": "Poussan", "code_postal": "34560", "lat": 43.497, "lng": 3.662},
  {"nom": "Pouzols", "code_postal": "34230", "lat": 43.622, "lng": 3.508},
  {"nom": "Prades-le-Lez", "code_postal": "34730", "lat": 43.707, "lng": 3.864},
  {"nom": "Puéchabon", "code_postal": "34150", "lat": 43.723, "lng": 3.603},
  {"nom": "Puilacher", "code_postal": "34230", "lat": 43.565, "lng": 3.503},
  {"nom": "Restinclières", "code_postal": "34160", "lat": 43.723, "lng": 4.039},
  {"nom": "Rouet", "code_postal": "34380", "lat": 43.825, "lng": 3.818},
  {"nom": "Saint-André-de-Buèges", "code_postal": "34190", "lat": 43.853, "lng": 3.643},
  {"nom": "Saint-André-de-Sangonis", "code_postal": "34725", "lat": 43.649, "lng": 3.505},
  {"nom": "Saint-Aunès", "code_postal": "34130", "lat": 43.634, "lng": 3.970},
  {"nom": "Saint-Bauzille-de-la-Sylve", "code_postal": "34230", "lat": 43.612, "lng": 3.561},
  {"nom": "Saint-Bauzille-de-Montmel", "code_postal": "34160", "lat": 43.776, "lng": 3.943},
  {"nom": "Saint-Bauzille-de-Putois", "code_postal": "34190", "lat": 43.902, "lng": 3.756},
  {"nom": "Saint-Brès", "code_postal": "34670", "lat": 43.665, "lng": 4.037},
  {"nom": "Saint-Clément", "code_postal": "30260", "lat": 43.827, "lng": 4.026},
  {"nom": "Saint-Clément-de-Rivière", "code_postal": "34980", "lat": 43.683, "lng": 3.844},
  {"nom": "Saint-Drézéry", "code_postal": "34160", "lat": 43.730, "lng": 3.976},
  {"nom": "Saint-Félix-de-Lodez", "code_postal": "34725", "lat": 43.659, "lng": 3.468},
  {"nom": "Saint-Gély-du-Fesc", "code_postal": "34980", "lat": 43.689, "lng": 3.810},
  {"nom": "Saint-Geniès-des-Mourgues", "code_postal": "34160", "lat": 43.697, "lng": 4.038},
  {"nom": "Saint-Georges-d'Orques", "code_postal": "34680", "lat": 43.616, "lng": 3.774},
  {"nom": "Saint-Guilhem-le-Désert", "code_postal": "34150", "lat": 43.753, "lng": 3.543},
  {"nom": "Saint-Guiraud", "code_postal": "34725", "lat": 43.680, "lng": 3.450},
  {"nom": "Saint-Hilaire-de-Beauvoir", "code_postal": "34160", "lat": 43.752, "lng": 4.017},
  {"nom": "Saint-Jean-de-Buèges", "code_postal": "34380", "lat": 43.833, "lng": 3.601},
  {"nom": "Saint-Jean-de-Cornies", "code_postal": "34160", "lat": 43.745, "lng": 4.003},
  {"nom": "Saint-Jean-de-Cuculles", "code_postal": "34270", "lat": 43.753, "lng": 3.834},
  {"nom": "Saint-Jean-de-Fos", "code_postal": "34150", "lat": 43.695, "lng": 3.546},
  {"nom": "Saint-Jean-de-la-Blaquière", "code_postal": "34700", "lat": 43.707, "lng": 3.430},
  {"nom": "Saint-Jean-de-Védas", "code_postal": "34430", "lat": 43.573, "lng": 3.832},
  {"nom": "Saint-Just", "code_postal": "34400", "lat": 43.656, "lng": 4.110},
  {"nom": "Saint-Martin-de-Londres", "code_postal": "34380", "lat": 43.795, "lng": 3.711},
  {"nom": "Saint-Mathieu-de-Tréviers", "code_postal": "34270", "lat": 43.767, "lng": 3.862},
  {"nom": "Saint-Nazaire-de-Pézan", "code_postal": "34400", "lat": 43.634, "lng": 4.117},
  {"nom": "Saint-Pargoire", "code_postal": "34230", "lat": 43.526, "lng": 3.541},
  {"nom": "Saint-Paul-et-Valmalle", "code_postal": "34570", "lat": 43.615, "lng": 3.684},
  {"nom": "Saint-Saturnin-de-Lucian", "code_postal": "34725", "lat": 43.708, "lng": 3.468},
  {"nom": "Saint-Sériès", "code_postal": "34400", "lat": 43.736, "lng": 4.106},
  {"nom": "Saint-Vincent-de-Barbeyrargues", "code_postal": "34730", "lat": 43.711, "lng": 3.876},
  {"nom": "Sainte-Croix-de-Quintillargues", "code_postal": "34270", "lat": 43.767, "lng": 3.910},
  {"nom": "Salinelles", "code_postal": "30250", "lat": 43.809, "lng": 4.063},
  {"nom": "Sardan", "code_postal": "30260", "lat": 43.865, "lng": 4.033},
  {"nom": "Saturargues", "code_postal": "34400", "lat": 43.713, "lng": 4.117},
  {"nom": "Saussan", "code_postal": "34570", "lat": 43.568, "lng": 3.783},
  {"nom": "Saussines", "code_postal": "34160", "lat": 43.758, "lng": 4.049},
  {"nom": "Sauteyrargues", "code_postal": "34270", "lat": 43.831, "lng": 3.918},
  {"nom": "Sussargues", "code_postal": "34160", "lat": 43.710, "lng": 3.988},
  {"nom": "Teyran", "code_postal": "34820", "lat": 43.687, "lng": 3.925},
  {"nom": "Tressan", "code_postal": "34230", "lat": 43.571, "lng": 3.487},
  {"nom": "Le Triadou", "code_postal": "34270", "lat": 43.735, "lng": 3.857},
  {"nom": "Usclas-du-Bosc", "code_postal": "34700", "lat": 43.724, "lng": 3.396},
  {"nom": "Vacquières", "code_postal": "34270", "lat": 43.828, "lng": 3.953},
  {"nom": "Vailhauquès", "code_postal": "34570", "lat": 43.665, "lng": 3.730},
  {"nom": "Valergues", "code_postal": "34130", "lat": 43.671, "lng": 4.057},
  {"nom": "Valflaunès", "code_postal": "34270", "lat": 43.804, "lng": 3.859},
  {"nom": "Vendargues", "code_postal": "34740", "lat": 43.662, "lng": 3.965},
  {"nom": "Vendémian", "code_postal": "34230", "lat": 43.580, "lng": 3.561},
  {"nom": "Vic-la-Gardiole", "code_postal": "34110", "lat": 43.483, "lng": 3.804},
  {"nom": "Villeneuve-lès-Maguelone", "code_postal": "34750", "lat": 43.511, "lng": 3.858},
  {"nom": "Villetelle", "code_postal": "34400", "lat": 43.724, "lng": 4.138},
  {"nom": "Villeveyrac", "code_postal": "34560", "lat": 43.495, "lng": 3.593},
  {"nom": "Villevieille", "code_postal": "30250", "lat": 43.794, "lng": 4.106},
  {"nom": "Viols-en-Laval", "code_postal": "34380", "lat": 43.743, "lng": 3.739},
  {"nom": "Viols-le-Fort", "code_postal": "34380", "lat": 43.735, "lng": 3.690}
]
